[
  {
    "OBJECT_NAME": "STARLINK-1762",
    "OBJECT_ID": "20062T",
    "EPOCH": "2025-11-11T02:02:23.321760",
    "MEAN_MOTION": 15.06400295,
    "ECCENTRICITY": 0.0001746,
    "INCLINATION": 53.0535,
    "RA_OF_ASC_NODE": 189.0563,
    "ARG_OF_PERICENTER": 93.7011,
    "MEAN_ANOMALY": 266.4178,
    "EPHEMERIS_TYPE": 0,
    "CLASSIFICATION_TYPE": "U",
    "NORAD_CAT_ID": 46342,
    "ELEMENT_SET_NO": 999,
    "REV_AT_EPOCH": 28643,
    "BSTAR": 0.00033362,
    "MEAN_MOTION_DOT": 4.691e-05,
    "MEAN_MOTION_DDOT": 0.0,
    "TLE_LINE1": "1 46342U 20062T   25315.08499215  .00004691  00000+0  33362-3 0  9992",
    "TLE_LINE2": "2 46342  53.0535 189.0563 0001746  93.7011 266.4178 15.06400295286432",
    "COMMENT": "Grouped by shell and plane from TLE"
  },
  {
    "OBJECT_NAME": "STARLINK-1661",
    "OBJECT_ID": "20062AG",
    "EPOCH": "2025-11-11T01:51:45.922176",
    "MEAN_MOTION": 15.06406192,
    "ECCENTRICITY": 0.0001428,
    "INCLINATION": 53.0525,
    "RA_OF_ASC_NODE": 189.0878,
    "ARG_OF_PERICENTER": 78.0921,
    "MEAN_ANOMALY": 282.0228,
    "EPHEMERIS_TYPE": 0,
    "CLASSIFICATION_TYPE": "U",
    "NORAD_CAT_ID": 46355,
    "ELEMENT_SET_NO": 999,
    "REV_AT_EPOCH": 28643,
    "BSTAR": 0.00035226,
    "MEAN_MOTION_DOT": 4.97e-05,
    "MEAN_MOTION_DDOT": 0.0,
    "TLE_LINE1": "1 46355U 20062AG  25315.07761484  .00004970  00000+0  35226-3 0  9996",
    "TLE_LINE2": "2 46355  53.0525 189.0878 0001428  78.0921 282.0228 15.06406192286439",
    "COMMENT": "Grouped by shell and plane from TLE"
  },
  {
    "OBJECT_NAME": "STARLINK-2047",
    "OBJECT_ID": "21005G",
    "EPOCH": "2025-11-11T00:40:46.471296",
    "MEAN_MOTION": 15.06397112,
    "ECCENTRICITY": 0.0001558,
    "INCLINATION": 53.0535,
    "RA_OF_ASC_NODE": 184.311,
    "ARG_OF_PERICENTER": 91.6919,
    "MEAN_ANOMALY": 268.4248,
    "EPHEMERIS_TYPE": 0,
    "CLASSIFICATION_TYPE": "U",
    "NORAD_CAT_ID": 47355,
    "ELEMENT_SET_NO": 999,
    "REV_AT_EPOCH": 26585,
    "BSTAR": 0.00036936000000000006,
    "MEAN_MOTION_DOT": 5.224e-05,
    "MEAN_MOTION_DDOT": 0.0,
    "TLE_LINE1": "1 47355U 21005G   25315.02831564  .00005224  00000+0  36936-3 0  9999",
    "TLE_LINE2": "2 47355  53.0535 184.3110 0001558  91.6919 268.4248 15.06397112265854",
    "COMMENT": "Grouped by shell and plane from TLE"
  },
  {
    "OBJECT_NAME": "STARLINK-2569",
    "OBJECT_ID": "21036B",
    "EPOCH": "2025-11-11T01:07:18.654816",
    "MEAN_MOTION": 15.06406347,
    "ECCENTRICITY": 0.0001283,
    "INCLINATION": 53.0533,
    "RA_OF_ASC_NODE": 184.2281,
    "ARG_OF_PERICENTER": 87.3236,
    "MEAN_ANOMALY": 272.79,
    "EPHEMERIS_TYPE": 0,
    "CLASSIFICATION_TYPE": "U",
    "NORAD_CAT_ID": 48277,
    "ELEMENT_SET_NO": 999,
    "REV_AT_EPOCH": 25141,
    "BSTAR": 0.00036122,
    "MEAN_MOTION_DOT": 5.104e-05,
    "MEAN_MOTION_DDOT": 0.0,
    "TLE_LINE1": "1 48277U 21036B   25315.04674369  .00005104  00000+0  36122-3 0  9991",
    "TLE_LINE2": "2 48277  53.0533 184.2281 0001283  87.3236 272.7900 15.06406347251414",
    "COMMENT": "Grouped by shell and plane from TLE"
  },
  {
    "OBJECT_NAME": "STARLINK-3560",
    "OBJECT_ID": "22022H",
    "EPOCH": "2025-11-11T00:28:37.518816",
    "MEAN_MOTION": 15.08842059,
    "ECCENTRICITY": 0.0001724,
    "INCLINATION": 53.2167,
    "RA_OF_ASC_NODE": 181.8608,
    "ARG_OF_PERICENTER": 83.8304,
    "MEAN_ANOMALY": 276.2885,
    "EPHEMERIS_TYPE": 0,
    "CLASSIFICATION_TYPE": "U",
    "NORAD_CAT_ID": 51859,
    "ELEMENT_SET_NO": 999,
    "REV_AT_EPOCH": 20524,
    "BSTAR": 0.00010625,
    "MEAN_MOTION_DOT": 1.403e-05,
    "MEAN_MOTION_DDOT": 0.0,
    "TLE_LINE1": "1 51859U 22022H   25315.01987869  .00001403  00000+0  10625-3 0  9994",
    "TLE_LINE2": "2 51859  53.2167 181.8608 0001724  83.8304 276.2885 15.08842059205249",
    "COMMENT": "Grouped by shell and plane from TLE"
  },
  {
    "OBJECT_NAME": "STARLINK-3559",
    "OBJECT_ID": "22022J",
    "EPOCH": "2025-11-11T00:37:51.490560",
    "MEAN_MOTION": 15.08840844,
    "ECCENTRICITY": 0.0001714,
    "INCLINATION": 53.2158,
    "RA_OF_ASC_NODE": 181.8233,
    "ARG_OF_PERICENTER": 85.2584,
    "MEAN_ANOMALY": 274.8604,
    "EPHEMERIS_TYPE": 0,
    "CLASSIFICATION_TYPE": "U",
    "NORAD_CAT_ID": 51860,
    "ELEMENT_SET_NO": 999,
    "REV_AT_EPOCH": 20520,
    "BSTAR": 0.0,
    "MEAN_MOTION_DOT": -2.754e-05,
    "MEAN_MOTION_DDOT": 0.0,
    "TLE_LINE1": "1 51860U 22022J   25315.02629040 -.00002754  00000+0 -15500-3 0  9990",
    "TLE_LINE2": "2 51860  53.2158 181.8233 0001714  85.2584 274.8604 15.08840844205209",
    "COMMENT": "Grouped by shell and plane from TLE"
  },
  {
    "OBJECT_NAME": "STARLINK-3562",
    "OBJECT_ID": "22022K",
    "EPOCH": "2025-11-11T00:16:38.812512",
    "MEAN_MOTION": 15.08839382,
    "ECCENTRICITY": 0.0001354,
    "INCLINATION": 53.2156,
    "RA_OF_ASC_NODE": 181.8865,
    "ARG_OF_PERICENTER": 94.0845,
    "MEAN_ANOMALY": 266.0302,
    "EPHEMERIS_TYPE": 0,
    "CLASSIFICATION_TYPE": "U",
    "NORAD_CAT_ID": 51861,
    "ELEMENT_SET_NO": 999,
    "REV_AT_EPOCH": 20511,
    "BSTAR": 2.3775e-05,
    "MEAN_MOTION_DOT": 9e-07,
    "MEAN_MOTION_DDOT": 0.0,
    "TLE_LINE1": "1 51861U 22022K   25315.01156033  .00000090  00000+0  23775-4 0  9990",
    "TLE_LINE2": "2 51861  53.2156 181.8865 0001354  94.0845 266.0302 15.08839382205110",
    "COMMENT": "Grouped by shell and plane from TLE"
  },
  {
    "OBJECT_NAME": "STARLINK-3508",
    "OBJECT_ID": "22022L",
    "EPOCH": "2025-11-11T00:32:32.929440",
    "MEAN_MOTION": 15.08848656,
    "ECCENTRICITY": 0.0001364,
    "INCLINATION": 53.2136,
    "RA_OF_ASC_NODE": 181.8398,
    "ARG_OF_PERICENTER": 82.9187,
    "MEAN_ANOMALY": 277.196,
    "EPHEMERIS_TYPE": 0,
    "CLASSIFICATION_TYPE": "U",
    "NORAD_CAT_ID": 51862,
    "ELEMENT_SET_NO": 999,
    "REV_AT_EPOCH": 20525,
    "BSTAR": 6.967400000000001e-05,
    "MEAN_MOTION_DOT": 8.21e-06,
    "MEAN_MOTION_DDOT": 0.0,
    "TLE_LINE1": "1 51862U 22022L   25315.02260335  .00000821  00000+0  69674-4 0  9993",
    "TLE_LINE2": "2 51862  53.2136 181.8398 0001364  82.9187 277.1960 15.08848656205258",
    "COMMENT": "Grouped by shell and plane from TLE"
  },
  {
    "OBJECT_NAME": "STARLINK-3555",
    "OBJECT_ID": "22022M",
    "EPOCH": "2025-11-11T01:41:26.730528",
    "MEAN_MOTION": 15.0883558,
    "ECCENTRICITY": 0.0001364,
    "INCLINATION": 53.2167,
    "RA_OF_ASC_NODE": 181.6221,
    "ARG_OF_PERICENTER": 92.3726,
    "MEAN_ANOMALY": 267.7423,
    "EPHEMERIS_TYPE": 0,
    "CLASSIFICATION_TYPE": "U",
    "NORAD_CAT_ID": 51863,
    "ELEMENT_SET_NO": 999,
    "REV_AT_EPOCH": 20520,
    "BSTAR": 0.00024367,
    "MEAN_MOTION_DOT": 3.592e-05,
    "MEAN_MOTION_DDOT": 0.0,
    "TLE_LINE1": "1 51863U 22022M   25315.07044827  .00003592  00000+0  24367-3 0  9992",
    "TLE_LINE2": "2 51863  53.2167 181.6221 0001364  92.3726 267.7423 15.08835580205206",
    "COMMENT": "Grouped by shell and plane from TLE"
  },
  {
    "OBJECT_NAME": "STARLINK-3548",
    "OBJECT_ID": "22022N",
    "EPOCH": "2025-11-11T01:46:43.389984",
    "MEAN_MOTION": 15.08840934,
    "ECCENTRICITY": 0.000145,
    "INCLINATION": 53.2138,
    "RA_OF_ASC_NODE": 181.5274,
    "ARG_OF_PERICENTER": 91.9348,
    "MEAN_ANOMALY": 268.181,
    "EPHEMERIS_TYPE": 0,
    "CLASSIFICATION_TYPE": "U",
    "NORAD_CAT_ID": 51864,
    "ELEMENT_SET_NO": 999,
    "REV_AT_EPOCH": 20525,
    "BSTAR": 6.4267e-05,
    "MEAN_MOTION_DOT": 7.35e-06,
    "MEAN_MOTION_DDOT": 0.0,
    "TLE_LINE1": "1 51864U 22022N   25315.07411331  .00000735  00000+0  64267-4 0  9991",
    "TLE_LINE2": "2 51864  53.2138 181.5274 0001450  91.9348 268.1810 15.08840934205252",
    "COMMENT": "Grouped by shell and plane from TLE"
  },
  {
    "OBJECT_NAME": "STARLINK-3503",
    "OBJECT_ID": "22022P",
    "EPOCH": "2025-11-10T22:20:03.703488",
    "MEAN_MOTION": 15.08841294,
    "ECCENTRICITY": 0.0001378,
    "INCLINATION": 53.2163,
    "RA_OF_ASC_NODE": 182.2506,
    "ARG_OF_PERICENTER": 90.796,
    "MEAN_ANOMALY": 269.319,
    "EPHEMERIS_TYPE": 0,
    "CLASSIFICATION_TYPE": "U",
    "NORAD_CAT_ID": 51865,
    "ELEMENT_SET_NO": 999,
    "REV_AT_EPOCH": 20518,
    "BSTAR": 0.00010828,
    "MEAN_MOTION_DOT": 1.436e-05,
    "MEAN_MOTION_DDOT": 0.0,
    "TLE_LINE1": "1 51865U 22022P   25314.93059842  .00001436  00000+0  10828-3 0  9993",
    "TLE_LINE2": "2 51865  53.2163 182.2506 0001378  90.7960 269.3190 15.08841294205189",
    "COMMENT": "Grouped by shell and plane from TLE"
  },
  {
    "OBJECT_NAME": "STARLINK-3553",
    "OBJECT_ID": "22022Q",
    "EPOCH": "2025-11-10T23:51:30.109536",
    "MEAN_MOTION": 15.08841816,
    "ECCENTRICITY": 0.0001525,
    "INCLINATION": 53.2159,
    "RA_OF_ASC_NODE": 181.8214,
    "ARG_OF_PERICENTER": 86.6019,
    "MEAN_ANOMALY": 273.5148,
    "EPHEMERIS_TYPE": 0,
    "CLASSIFICATION_TYPE": "U",
    "NORAD_CAT_ID": 51866,
    "ELEMENT_SET_NO": 999,
    "REV_AT_EPOCH": 20519,
    "BSTAR": 0.00017964,
    "MEAN_MOTION_DOT": 2.572e-05,
    "MEAN_MOTION_DDOT": 0.0,
    "TLE_LINE1": "1 51866U 22022Q   25314.99409849  .00002572  00000+0  17964-3 0  9996",
    "TLE_LINE2": "2 51866  53.2159 181.8214 0001525  86.6019 273.5148 15.08841816205190",
    "COMMENT": "Grouped by shell and plane from TLE"
  },
  {
    "OBJECT_NAME": "STARLINK-3590",
    "OBJECT_ID": "22022R",
    "EPOCH": "2025-11-10T22:14:45.741984",
    "MEAN_MOTION": 15.08841163,
    "ECCENTRICITY": 0.0001514,
    "INCLINATION": 53.2145,
    "RA_OF_ASC_NODE": 182.268,
    "ARG_OF_PERICENTER": 82.7786,
    "MEAN_ANOMALY": 277.3379,
    "EPHEMERIS_TYPE": 0,
    "CLASSIFICATION_TYPE": "U",
    "NORAD_CAT_ID": 51867,
    "ELEMENT_SET_NO": 999,
    "REV_AT_EPOCH": 20518,
    "BSTAR": 0.00011365,
    "MEAN_MOTION_DOT": 1.521e-05,
    "MEAN_MOTION_DDOT": 0.0,
    "TLE_LINE1": "1 51867U 22022R   25314.92691831  .00001521  00000+0  11365-3 0  9996",
    "TLE_LINE2": "2 51867  53.2145 182.2680 0001514  82.7786 277.3379 15.08841163205186",
    "COMMENT": "Grouped by shell and plane from TLE"
  }
]